[{"OBJECT_NAME":"STARLINK-33786","OBJECT_ID":"2025-071X","EPOCH":"2026-03-09T11:30:48.479328","MEAN_MOTION":15.30179796,"ECCENTRICITY":0.00016492,"INCLINATION":53.1571,"RA_OF_ASC_NODE":141.1484,"ARG_OF_PERICENTER":29.4064,"MEAN_ANOMALY":330.7029,"EPHEMERIS_TYPE":0,"CLASSIFICATION_TYPE":"U","NORAD_CAT_ID":63514,"ELEMENT_SET_NO":999,"REV_AT_EPOCH":5235,"BSTAR":0.00029895946,"MEAN_MOTION_DOT":8.5e-5,"MEAN_MOTION_DDOT":0},{"OBJECT_NAME":"OKEAN-1","OBJECT_ID":"1988-056A","EPOCH":"2026-03-09T21:19:04.260000","MEAN_MOTION":15.31672069,"ECCENTRICITY":0.00129431,"INCLINATION":82.4671,"RA_OF_ASC_NODE":262.7586,"ARG_OF_PERICENTER":168.0696,"MEAN_ANOMALY":192.0855,"EPHEMERIS_TYPE":0,"CLASSIFICATION_TYPE":"U","NORAD_CAT_ID":19274,"ELEMENT_SET_NO":999,"REV_AT_EPOCH":3511,"BSTAR":0.00038371192,"MEAN_MOTION_DOT":0.00011798,"MEAN_MOTION_DDOT":0}]
